{
  "type": "FeatureCollection",
  "features": [
    {
      "type": "Feature",
      "properties": {
        "norad_id": 31307,
        "name": "GALAXY 17 (G-17)",
        "group": "intelsat",
        "lat": -0.8692049503372036,
        "lon": -77.60583352032081,
        "alt_km": 35767.39754944004,
        "timestamp": "2025-12-04T19:33:59.298667+00:00",
        "meta_object_name": "GALAXY 17 (G-17)",
        "meta_object_id": "2007-016B",
        "meta_epoch": "2025-12-04T06:28:27.852384",
        "meta_mean_motion": 1.00270323,
        "meta_eccentricity": 0.00061224,
        "meta_inclination": 2.4771,
        "meta_ra_of_asc_node": 82.3832,
        "meta_arg_of_pericenter": 157.7627,
        "meta_mean_anomaly": 205.3175,
        "meta_ephemeris_type": 0,
        "meta_classification_type": "U",
        "meta_norad_cat_id": 31307,
        "meta_element_set_no": 999,
        "meta_rev_at_epoch": 6785,
        "meta_bstar": 0,
        "meta_mean_motion_dot": -1.92e-06,
        "meta_mean_motion_ddot": 0,
        "tle_line1": "1 31307U 07016B   25338.26976681 -.00000192  00000+0  00000+0 0  9995",
        "tle_line2": "2 31307   2.4771  82.3832 0006122 157.7627 205.3175  1.00270323 67856"
      },
      "geometry": {
        "type": "Point",
        "coordinates": [
          -77.60583352032081,
          -0.8692049503372036
        ]
      }
    },
    {
      "type": "Feature",
      "properties": {
        "norad_id": 31862,
        "name": "DIRECTV 10",
        "group": "intelsat",
        "lat": 0.00305147852577288,
        "lon": -95.44613203430742,
        "alt_km": 35787.20517098999,
        "timestamp": "2025-12-04T19:33:59.298678+00:00",
        "meta_object_name": "DIRECTV 10",
        "meta_object_id": "2007-032A",
        "meta_epoch": "2025-12-04T06:23:20.842944",
        "meta_mean_motion": 1.0026682,
        "meta_eccentricity": 6.89e-06,
        "meta_inclination": 0.0012,
        "meta_ra_of_asc_node": 68.1966,
        "meta_arg_of_pericenter": 212.976,
        "meta_mean_anomaly": 145.2097,
        "meta_ephemeris_type": 0,
        "meta_classification_type": "U",
        "meta_norad_cat_id": 31862,
        "meta_element_set_no": 999,
        "meta_rev_at_epoch": 4363,
        "meta_bstar": 0,
        "meta_mean_motion_dot": -8.7e-07,
        "meta_mean_motion_ddot": 0,
        "tle_line1": "1 31862U 07032A   25338.26621346 -.00000087  00000+0  00000+0 0  9997",
        "tle_line2": "2 31862   0.0012  68.1966 0000068 212.9760 145.2097  1.00266820 43631"
      },
      "geometry": {
        "type": "Point",
        "coordinates": [
          -95.44613203430742,
          0.00305147852577288
        ]
      }
    },
    {
      "type": "Feature",
      "properties": {
        "norad_id": 32253,
        "name": "INTELSAT 11 (IS-11)",
        "group": "intelsat",
        "lat": -0.39382339208841166,
        "lon": -92.01130550983373,
        "alt_km": 36097.021466295104,
        "timestamp": "2025-12-04T19:33:59.298688+00:00",
        "meta_object_name": "INTELSAT 11 (IS-11)",
        "meta_object_id": "2007-044B",
        "meta_epoch": "2025-12-04T06:24:58.187232",
        "meta_mean_motion": 0.9904715,
        "meta_eccentricity": 0.0009299,
        "meta_inclination": 3.0566,
        "meta_ra_of_asc_node": 81.0713,
        "meta_arg_of_pericenter": 161.6588,
        "meta_mean_anomaly": 189.8584,
        "meta_ephemeris_type": 0,
        "meta_classification_type": "U",
        "meta_norad_cat_id": 32253,
        "meta_element_set_no": 999,
        "meta_rev_at_epoch": 6651,
        "meta_bstar": 0,
        "meta_mean_motion_dot": 2.1e-07,
        "meta_mean_motion_ddot": 0,
        "tle_line1": "1 32253U 07044B   25338.26734013  .00000021  00000+0  00000+0 0  9998",
        "tle_line2": "2 32253   3.0566  81.0713 0009299 161.6588 189.8584  0.99047150 66517"
      },
      "geometry": {
        "type": "Point",
        "coordinates": [
          -92.01130550983373,
          -0.39382339208841166
        ]
      }
    },
    {
      "type": "Feature",
      "properties": {
        "norad_id": 32388,
        "name": "HORIZONS-2",
        "group": "intelsat",
        "lat": -1.0833412372795106,
        "lon": -66.40642081384998,
        "alt_km": 35767.64112811263,
        "timestamp": "2025-12-04T19:33:59.298699+00:00",
        "meta_object_name": "HORIZONS-2",
        "meta_object_id": "2007-063B",
        "meta_epoch": "2025-12-04T06:31:35.054400",
        "meta_mean_motion": 1.00271777,
        "meta_eccentricity": 0.00050276,
        "meta_inclination": 2.098,
        "meta_ra_of_asc_node": 83.0544,
        "meta_arg_of_pericenter": 181.7244,
        "meta_mean_anomaly": 192.6828,
        "meta_ephemeris_type": 0,
        "meta_classification_type": "U",
        "meta_norad_cat_id": 32388,
        "meta_element_set_no": 999,
        "meta_rev_at_epoch": 6586,
        "meta_bstar": 0,
        "meta_mean_motion_dot": -2.39e-06,
        "meta_mean_motion_ddot": 0,
        "tle_line1": "1 32388U 07063B   25338.27193350 -.00000239  00000+0  00000+0 0  9994",
        "tle_line2": "2 32388   2.0980  83.0544 0005027 181.7244 192.6828  1.00271777 65863"
      },
      "geometry": {
        "type": "Point",
        "coordinates": [
          -66.40642081384998,
          -1.0833412372795106
        ]
      }
    },
    {
      "type": "Feature",
      "properties": {
        "norad_id": 32729,
        "name": "DIRECTV 11",
        "group": "intelsat",
        "lat": 0.010483166356759692,
        "lon": -91.83665914058359,
        "alt_km": 35786.104130167114,
        "timestamp": "2025-12-04T19:33:59.298709+00:00",
        "meta_object_name": "DIRECTV 11",
        "meta_object_id": "2008-013A",
        "meta_epoch": "2025-12-04T06:24:20.746656",
        "meta_mean_motion": 1.00269601,
        "meta_eccentricity": 2.238e-05,
        "meta_inclination": 0.0003,
        "meta_ra_of_asc_node": 97.7037,
        "meta_arg_of_pericenter": 119.9474,
        "meta_mean_anomaly": 212.5833,
        "meta_ephemeris_type": 0,
        "meta_classification_type": "U",
        "meta_norad_cat_id": 32729,
        "meta_element_set_no": 999,
        "meta_rev_at_epoch": 4363,
        "meta_bstar": 0,
        "meta_mean_motion_dot": -1.1e-06,
        "meta_mean_motion_ddot": 0,
        "tle_line1": "1 32729U 08013A   25338.26690679 -.00000110  00000+0  00000+0 0  9992",
        "tle_line2": "2 32729   0.0003  97.7037 0000223 119.9474 212.5833  1.00269601 43638"
      },
      "geometry": {
        "type": "Point",
        "coordinates": [
          -91.83665914058359,
          0.010483166356759692
        ]
      }
    },
    {
      "type": "Feature",
      "properties": {
        "norad_id": 32951,
        "name": "GALAXY 18 (G-18)",
        "group": "intelsat",
        "lat": -0.038685161792911156,
        "lon": -115.64216419079114,
        "alt_km": 35772.81852446942,
        "timestamp": "2025-12-04T19:33:59.298733+00:00",
        "meta_object_name": "GALAXY 18 (G-18)",
        "meta_object_id": "2008-024A",
        "meta_epoch": "2025-12-04T04:34:52.768128",
        "meta_mean_motion": 1.00271412,
        "meta_eccentricity": 0.00032353,
        "meta_inclination": 0.0165,
        "meta_ra_of_asc_node": 356.8889,
        "meta_arg_of_pericenter": 260.9725,
        "meta_mean_anomaly": 121.133,
        "meta_ephemeris_type": 0,
        "meta_classification_type": "U",
        "meta_norad_cat_id": 32951,
        "meta_element_set_no": 999,
        "meta_rev_at_epoch": 4389,
        "meta_bstar": 0,
        "meta_mean_motion_dot": 4.1e-07,
        "meta_mean_motion_ddot": 0,
        "tle_line1": "1 32951U 08024A   25338.19088852  .00000041  00000+0  00000+0 0  9999",
        "tle_line2": "2 32951   0.0165 356.8889 0003235 260.9725 121.1330  1.00271412 43898"
      },
      "geometry": {
        "type": "Point",
        "coordinates": [
          -115.64216419079114,
          -0.038685161792911156
        ]
      }
    },
    {
      "type": "Feature",
      "properties": {
        "norad_id": 33153,
        "name": "INTELSAT 25 (IS-25)",
        "group": "intelsat",
        "lat": -2.1084439341117944,
        "lon": -24.07832508888819,
        "alt_km": 35780.61763712346,
        "timestamp": "2025-12-04T19:33:59.298744+00:00",
        "meta_object_name": "INTELSAT 25 (IS-25)",
        "meta_object_id": "2008-034A",
        "meta_epoch": "2025-12-04T06:43:41.394144",
        "meta_mean_motion": 1.00271178,
        "meta_eccentricity": 0.00053971,
        "meta_inclination": 2.2043,
        "meta_ra_of_asc_node": 82.7431,
        "meta_arg_of_pericenter": 178.3332,
        "meta_mean_anomaly": 241.7118,
        "meta_ephemeris_type": 0,
        "meta_classification_type": "U",
        "meta_norad_cat_id": 33153,
        "meta_element_set_no": 999,
        "meta_rev_at_epoch": 6374,
        "meta_bstar": 0,
        "meta_mean_motion_dot": -2.09e-06,
        "meta_mean_motion_ddot": 0,
        "tle_line1": "1 33153U 08034A   25338.28034021 -.00000209  00000+0  00000+0 0  9991",
        "tle_line2": "2 33153   2.2043  82.7431 0005397 178.3332 241.7118  1.00271178 63745"
      },
      "geometry": {
        "type": "Point",
        "coordinates": [
          -24.07832508888819,
          -2.1084439341117944
        ]
      }
    }
  ]
}